POPACS 1                
1 39268U 13055D   22209.42573986  .00012181  00000+0  30351-3 0  9998
2 39268  80.9942 195.4028 0568734  76.7659 289.6307 14.51423022460711
POPACS 2                
1 39269U 13055E   22209.55782677  .00004876  00000+0  13455-3 0  9990
2 39269  81.0101 253.2757 0644293 226.6673 127.9080 14.33396465456076
POPACS 3                
1 39270U 13055F   22209.53269516  .00003412  00000+0  10367-3 0  9996
2 39270  81.0155 286.9093 0686880 321.9983  33.4552 14.22312407434471
ZACUBE-1 (TSHEPISOSAT)  
1 39417U 13066B   22209.87918325  .00000767  00000+0  99605-4 0  9990
2 39417  97.6388 179.5148 0055982 268.9037  90.5762 14.82474657469260
WNISAT-1                
1 39423U 13066H   22209.66739400  .00000460  00000+0  99697-4 0  9990
2 39423  97.7488  88.0990 0175165   9.4947 350.9490 14.53529297460443
TRITON-1                
1 39427U 13066M   22209.81666718  .00000586  00000+0  98559-4 0  9997
2 39427  97.8132 143.8167 0112773 131.9525 229.1360 14.69045506465046
DELFI-N3XT              
1 39428U 13066N   22209.79733718  .00000899  00000+0  14486-3 0  9993
2 39428  97.8142 142.3830 0117818 145.0135 215.8886 14.69307508464785
GOMX-1                  
1 39430U 13066Q   22209.77368668  .00000784  00000+0  14879-3 0  9991
2 39430  97.8060 114.6108 0147599 274.7710  83.6628 14.60284270462329
CUBEBUG-2 (LO-74)       
1 39440U 13066AA  22209.84666178  .00001014  00000+0  14354-3 0  9992
2 39440  97.7281 165.6698 0078639 358.4335   1.6618 14.77131353466396
NEE-02 KRYSAOR          
1 39441U 13066AB  22209.81703880  .00000743  00000+0  11011-3 0  9997
2 39441  97.7392 162.8039 0080887  12.2501 348.0650 14.75830254467294
FUNCUBE-1 (AO-73)       
1 39444U 13066AE  22209.79789548  .00000882  00000+0  11065-3 0  9995
2 39444  97.6266 181.8484 0054826 256.7521 102.7575 14.83580721468249
UWE-3                   
1 39446U 13066AG  22209.79676006  .00000869  00000+0  11831-3 0  9997
2 39446  97.6878 172.0814 0067431 315.5824  43.9992 14.79697560467169
AEROCUBE 5A             
1 39465U 13072D   22209.78594578  .00027338  00000+0  15406-2 0  9998
2 39465 120.4852 107.0026 0193864 324.5353  34.2956 14.98540043155810
AEROCUBE 5B             
1 39466U 13072E   22209.78611873  .00066483  00000+0  21554-2 0  9992
2 39466 120.4553 198.5622 0130751 346.9455  12.8255 15.23546965157019
BRITE-CA1 (TORONTO)     
1 40020U 14033L   22209.68141562  .00000380  00000+0  72058-4 0  9991
2 40020  97.7828   6.5521 0087894 131.4085 229.4717 14.67089137433701
DUCHIFAT-1              
1 40021U 14033M   22209.69223376  .00001811  00000+0  17938-3 0  9992
2 40021  98.0142 160.6521 0010822 264.6363  95.3621 14.93099643440852
NANOSATC-BR1            
1 40024U 14033Q   22209.79665073  .00001551  00000+0  15908-3 0  9996
2 40024  97.9868 153.9094 0010325 272.0026  88.0010 14.91910169440141
QB50P1                  
1 40025U 14033R   22209.81019848  .00000967  00000+0  10450-3 0  9990
2 40025  97.9608 147.5375 0010636 283.3046  76.6985 14.90657045440433
QB50P2                  
1 40032U 14033Y   22209.78459873  .00000978  00000+0  10710-3 0  9991
2 40032  97.9378 142.7365 0010085 280.9969  79.0114 14.90072069439779
PERSEUS-M2              
1 40037U 14033AD  22209.75389965  .00000424  00000+0  53265-4 0  9996
2 40037  97.8951 131.7436 0013037 306.3933  53.6080 14.87165144439268
PERSEUS-M1              
1 40039U 14033AF  22209.75953683  .00000410  00000+0  52209-4 0  9994
2 40039  97.8850 129.4363 0012865 305.4903  54.5112 14.86772867439144
POLYITAN-1              
1 40042U 14033AJ  22209.82349090  .00001230  00000+0  13111-3 0  9996
2 40042  97.9715 148.7979 0012701 274.2040  85.7726 14.90709167439819
TIGRISAT                
1 40043U 14033AK  22209.47212803  .00000443  00000+0  71075-4 0  9998
2 40043  97.6564  36.5188 0059812  24.9610 335.4472 14.75082568435677
AEROCUBE 6A             
1 40045U 14033AM  22209.47085692  .00000478  00000+0  73995-4 0  9995
2 40045  97.6652  45.4164 0057254  12.8769 347.3888 14.76474264436076
AEROCUBE 6B             
1 40046U 14033AN  22209.77693536  .00000840  00000+0  12357-3 0  9998
2 40046  97.6566  44.1493 0056043   9.9965 350.2347 14.76857672435881
UKUBE-1                 
1 40074U 14037F   22209.64305653  .00001304  00000+0  15786-3 0  9994
2 40074  98.3777  92.4603 0004713 140.5877 219.5678 14.85528791436189
BRITE-PL2 (HEWELIUSZ)   
1 40119U 14049B   22209.77872491  .00000530  00000+0  67985-4 0  9999
2 40119  97.8851 304.9834 0018626 106.0860 254.2408 14.85204765430149
FIREBIRD 4              
1 40378U 15003C   22209.64790077  .00008352  00000+0  24484-3 0  9998
2 40378  99.0953  83.9957 0096943 244.7615 114.3548 15.30954533414722
GRIFEX                  
1 40379U 15003D   22209.56549705  .00005132  00000+0  18168-3 0  9995
2 40379  99.1073  69.3550 0112914 289.4461  69.4598 15.23888672413890
CP10 (EXOCUBE)          
1 40380U 15003E   22209.62889546  .00003434  00000+0  13383-3 0  9991
2 40380  99.1169  62.0553 0121506 314.1363  44.9923 15.20344725413416
TIANWANG 1A (TW-1A)     
1 40928U 15051D   22209.95197988  .00031782  00000+0  35108-3 0  9996
2 40928  97.0360 232.3232 0006013 205.2572 239.4795 15.62977476384716
EXACTVIEW 9             
1 40936U 15052G   22209.69817202  .00001110  00000+0  64569-4 0  9991
2 40936   6.0030 239.1842 0010181  18.0032 342.0456 14.77221005369323
AEROCUBE 5C             
1 40965U 15058B   22209.79050673  .00001294  00000+0  16009-3 0  9999
2 40965  64.7785 325.9082 0187707 186.9745 172.8745 14.75739275155063
AEROCUBE 7              
1 40966U 15058C   22209.77329234  .00001575  00000+0  18905-3 0  9999
2 40966  64.7798 323.0474 0185628 186.6372 173.2274 14.76322784155061
ATHENOXAT 1             
1 41168U 15077C   22209.91334576  .00010169  00000+0  39999-3 0  9991
2 41168  14.9899 142.9192 0008691 101.8034 309.0381 15.21903217366630
GALASSIA                
1 41170U 15077E   22209.45386665  .00006531  00000+0  25211-3 0  9999
2 41170  14.9873 137.4617 0010373 126.0529 234.0755 15.21044777366475
VELOX-II                
1 41171U 15077F   22209.37500031  .00004648  00000+0  19753-3 0  9997
2 41171  14.9895 213.4648 0007653 318.3328  41.6410 15.16273738365833
HORYU-4                 
1 41340U 16012D   22209.86755388  .00001714  00000+0  11610-3 0  9991
2 41340  31.0046  94.5958 0013444 253.2167 106.6995 15.03530090353968
E-ST@R-II               
1 41459U 16025D   22209.73461174  .00010952  00000+0  46267-3 0  9999
2 41459  98.1876  17.9724 0144197 129.0986 232.3127 15.14393631343742
AAUSAT 4                
1 41460U 16025E   22209.48588888  .00015748  00000+0  58090-3 0  9990
2 41460  98.1830  24.2927 0123362 104.5745 256.9201 15.20921725344173
BEESAT-4                
1 41619U 16040W   22209.60170654  .00008392  00000+0  27264-3 0  9991
2 41619  97.2139 259.1520 0008073 339.3040  20.7875 15.32136131327027
RAVAN                   
1 41849U 16067B   22209.84767016  .00001657  00000+0  13487-3 0  9994
2 41849  98.0055 348.0425 0013871 197.1780 162.8976 15.00948278312205
CELTEE 1                
1 41850U 16067C   22209.84623404  .00001474  00000+0  12810-3 0  9994
2 41850  98.0022 342.9230 0008712 187.0753 173.0347 14.98598919311950
OPTICUBE 04             
1 41851U 16067D   22209.31165742  .00001179  00000+0  10546-3 0  9999
2 41851  98.0011 341.3764 0008460 193.4599 166.6398 14.97874165311822
AEROCUBE 8D             
1 41852U 16067E   22209.37102968  .00001467  00000+0  12783-3 0  9992
2 41852  97.9991 341.4743 0009401 195.4193 164.6744 14.98512137311826
AEROCUBE 8C             
1 41853U 16067F   22209.82030817  .00000875  00000+0  78423-4 0  9992
2 41853  97.9989 341.7556 0009264 200.6754 159.4094 14.98485543311884
PROMETHEUS 2-1          
1 41854U 16067G   22209.68930865  .00001688  00000+0  14169-3 0  9998
2 41854  97.9980 342.7738 0011794 208.7674 151.2899 14.99727908311923
PROMETHEUS 2-3          
1 41855U 16067H   22209.81463007  .00001221  00000+0  10389-3 0  9996
2 41855  98.0011 342.9890 0009810 214.5836 145.4749 14.99764328311941
INS-1B                  
1 41954U 17008G   22209.65575181  .00008187  00000+0  26347-3 0  9990
2 41954  97.2551 268.7071 0009179  90.8800 269.3494 15.32440872303050
BGUSAT                  
1 41999U 17008BD  22209.74455766  .00019620  00000+0  44445-3 0  9998
2 41999  97.2789 280.0574 0006496  86.2908 273.9083 15.43123108303006
DIDO-2                  
1 42000U 17008BE  22209.85587236  .00004192  00000+0  15112-3 0  9999
2 42000  97.2541 268.1102 0009097 108.3470 251.8761 15.29039932302394
PEASSS                  
1 42015U 17008BV  22209.41636408  .00006858  00000+0  22123-3 0  9994
2 42015  97.2611 271.7219 0006985 105.5348 254.6666 15.32443527303044
AL-FARABI 1             
1 42016U 17008BW  22209.74712910  .00009395  00000+0  27305-3 0  9990
2 42016  97.2676 275.2719 0006225 101.0270 259.1675 15.35658660303388
NAYIF-1 (EO-88)         
1 42017U 17008BX  22209.75831363  .00009504  00000+0  27485-3 0  9997
2 42017  97.2669 275.2994 0006523  99.8016 260.3965 15.35809963303413
UCLSAT                  
1 42765U 17036A   22209.65265304  .00007282  00000+0  24822-3 0  9996
2 42765  97.1943 251.0427 0009765 166.3574 193.7933 15.30614252284153
LITUANICASAT-2          
1 42768U 17036D   22209.88754005  .00016366  00000+0  44663-3 0  9993
2 42768  97.2026 254.3932 0011504 150.1210 210.0694 15.37437844283612
AALTO-1                 
1 42775U 17036L   22209.87920005  .00003617  00000+0  14267-3 0  9997
2 42775  97.1947 246.0823 0012740 171.4849 188.6609 15.26103878283098
URSA MAIOR              
1 42776U 17036M   22209.77881833  .00004362  00000+0  16838-3 0  9996
2 42776  97.1960 246.7558 0012423 170.3436 189.8044 15.26714729283116
COMPASS 2               
1 42777U 17036N   22209.87222998  .00010840  00000+0  33320-3 0  9992
2 42777  97.2015 253.5426 0010443 154.2360 205.9406 15.33809171283493
